CUBEBUG-2 (LO-74)       
1 39440U 13066AA  26165.45071300  .00004255  00000+0  39412-3 0  9993
2 39440  97.8904 114.4172 0058587  37.8529 322.6788 14.93741094676586
FUNCUBE-1 (AO-73)       
1 39444U 13066AE  26165.47123696  .00006880  00000+0  42769-3 0  9990
2 39444  97.8269 136.8603 0035411 210.5774 149.3391 15.09460207679257
UWE-3                   
1 39446U 13066AG  26165.40834477  .00004185  00000+0  36061-3 0  9995
2 39446  97.8690 121.4633 0048024 330.3951  29.4552 14.97004771677163
UNISAT-6                
1 40012U 14033C   26165.37667053  .00002974  00000+0  32186-3 0  9999
2 40012  97.7871 318.1381 0046326  78.3311 282.3099 14.88233319645748
DUCHIFAT-1              
1 40021U 14033M   26165.14309872  .00112865  00000+0  11822-2 0  9990
2 40021  98.0474 223.8762 0003417 119.3968 240.7631 15.64039026655277
QB50P1                  
1 40025U 14033R   26164.98653313  .00008764  00000+0  43164-3 0  9994
2 40025  98.0960 175.9078 0007561 228.0389 132.0200 15.18216590652541
LILACSAT-2              
1 40908U 15049K   26165.49876693  .00016724  00000+0  28568-3 0  9993
2 40908  97.4648 202.2380 0005381 258.0299 102.0349 15.51366738595339
FOX-1A (AO-85)          
1 40967U 15058D   26165.46834082  .00002281  00000+0  21121-3 0  9992
2 40967  64.7761 287.4327 0130281  57.6479 303.7167 14.90958301113164
CAS-2T & KS-1Q          
1 41847U 16066G   26165.47017350  .00001606  00000+0  23210-3 0  9993
2 41847  98.3821 241.2375 0342714 137.6929 225.1249 14.44686169504406
RADFXSAT (FOX-1B)       
1 43017U 17073E   26165.16518689  .00008607  00000+0  37613-3 0  9990
2 43017  97.4711  32.4423 0150020 339.7577  19.7744 15.12676252464938
DIWATA-2B               
1 43678U 18084H   26165.50235400  .00002420  00000+0  19736-3 0  9994
2 43678  98.1177   1.5940 0012336 178.8655 181.2598 15.00441011415817
ES'HAIL 2               
1 43700U 18090A   26165.47986343  .00000151  00000+0  00000+0 0  9991
2 43700   0.0004 359.7326 0001518 123.3043 338.2873  1.00269213 27654
FOX-1CLIFF (AO-95)      
1 43770U 18099N   26165.12822934  .00011968  00000+0  45845-3 0  9992
2 43770  97.4390 225.3853 0008298   9.0334 351.1052 15.26654463412757
ITASAT                  
1 43786U 18099AE  26165.45262811  .00006068  00000+0  29240-3 0  9993
2 43786  97.4032 217.0186 0012397  10.0529 350.0951 15.19027057412499
JY1SAT (JO-97)          
1 43803U 18099AX  26165.15960116  .00016674  00000+0  51563-3 0  9990
2 43803  97.4134 227.9830 0004214 277.2169  82.8595 15.33568110413169
UWE-4                   
1 43880U 18111E   26165.30258735  .00032250  00000+0  66149-3 0  9998
2 43880  97.5859  93.5612 0006031 355.2213   4.8977 15.45969448410336
TIANYAN 01              
1 44881U 19093C   26165.48687047  .00001047  00000+0  12418-3 0  9991
2 44881  97.7537 237.7845 0015052  95.2205 265.0729 14.86515621351017
RS-44 & BREEZE-KM R/B   
1 44909U 19096E   26165.50338654  .00000018  00000+0  20476-4 0  9996
2 44909  82.5218 341.4886 0218068 150.4238 210.9408 12.79748825302008
SALSAT                  
1 46495U 20068K   26165.46369228  .00007647  00000+0  26787-3 0  9990
2 46495  97.8844 168.3625 0008244 319.7381  40.3247 15.29766434314949
XW-3 (CAS-9)            
1 50466U 21131B   26165.48609940  .00000546  00000+0  18215-3 0  9993
2 50466  98.4982 257.8902 0005354 102.9718 257.2069 14.41355538234729
GREENCUBE (IO-117)      
1 53109U 22080E   26164.29338770 -.00000003  00000+0  00000+0 0  9990
2 53109  70.1444 299.5995 0008910 290.4576  69.5127  6.42583230 91811
UMKA 1 (RS40S)          
1 57172U 23091G   26165.46205102  .00006214  00000+0  28440-3 0  9990
2 57172  97.5055 224.1695 0014150 126.1520 234.1026 15.20790126163597
CUBESX-HSE 3 (RS42S)    
1 57178U 23091N   26165.49445571  .00012475  00000+0  41599-3 0  9991
2 57178  97.5099 231.0473 0012094 102.9657 257.2935 15.31154708164015
MONITOR-3 (RS58S)       
1 57180U 23091Q   26165.51301532  .00010387  00000+0  38432-3 0  9997
2 57180  97.5090 228.9390 0013114 108.9530 251.3132 15.27794971163887
MONITOR-4 (RS57S)       
1 57182U 23091S   26165.42672828  .00009865  00000+0  36425-3 0  9997
2 57182  97.5084 228.8233 0013121 109.5914 250.6743 15.27879131163879
MONITOR-2 (RS39S)       
1 57184U 23091U   26165.47988942  .00004579  00000+0  22243-3 0  9991
2 57184  97.5077 223.7801 0012665 119.2727 240.9775 15.18888523163546
SVYATOBOR 1 (RS60S)     
1 57187U 23091X   26165.50300591  .00008600  00000+0  33097-3 0  9994
2 57187  97.5096 229.3049 0010904 102.4711 257.7748 15.26575227163906
VIZARD-METEO (RS38S)    
1 57189U 23091Z   26165.41145403  .00016991  00000+0  48686-3 0  9997
2 57189  97.5099 234.8407 0008426  85.9279 274.2928 15.35947926164263
POLYTECH-UNIVERSE 3 (R*)
1 57191U 23091AB  26165.50745086  .00005254  00000+0  25282-3 0  9990
2 57191  97.5052 223.3120 0016723 135.2791 224.9795 15.19090142163542
UTMN 2 (RS27S)          
1 57203U 23091AP  26165.51351495  .00012070  00000+0  39260-3 0  9997
2 57203  97.5095 232.6973 0009400  91.8085 268.4233 15.31993936164132
